[
    {
        "CCSDS_OMM_VERS": "3.0",
        "COMMENT": "GENERATED VIA SPACE-TRACK.ORG API",
        "CREATION_DATE": "2025-04-14T03:05:54",
        "ORIGINATOR": "18 SPCS",
        "OBJECT_NAME": "QZS-3",
        "OBJECT_ID": "2017-048A",
        "CENTER_NAME": "EARTH",
        "REF_FRAME": "TEME",
        "TIME_SYSTEM": "UTC",
        "MEAN_ELEMENT_THEORY": "SGP4",
        "EPOCH": "2025-04-13T22:01:01.464384",
        "MEAN_MOTION": "1.00275810",
        "ECCENTRICITY": "0.00026760",
        "INCLINATION": "0.0580",
        "RA_OF_ASC_NODE": "158.3856",
        "ARG_OF_PERICENTER": "235.7109",
        "MEAN_ANOMALY": "265.4866",
        "EPHEMERIS_TYPE": "0",
        "CLASSIFICATION_TYPE": "U",
        "NORAD_CAT_ID": "42917",
        "ELEMENT_SET_NO": "999",
        "REV_AT_EPOCH": "2795",
        "BSTAR": "0.00000000000000",
        "MEAN_MOTION_DOT": "-0.00000340",
        "MEAN_MOTION_DDOT": "0.0000000000000",
        "SEMIMAJOR_AXIS": "42163.604",
        "PERIOD": "1436.039",
        "APOAPSIS": "35796.752",
        "PERIAPSIS": "35774.186",
        "OBJECT_TYPE": "PAYLOAD",
        "RCS_SIZE": "LARGE",
        "COUNTRY_CODE": "JPN",
        "LAUNCH_DATE": "2017-08-19",
        "SITE": "TNSTA",
        "DECAY_DATE": null,
        "FILE": "4701263",
        "GP_ID": "285538294",
        "TLE_LINE0": "0 QZS-3",
        "TLE_LINE1": "1 42917U 17048A   25103.91737806 -.00000340  00000-0  00000-0 0  9993",
        "TLE_LINE2": "2 42917   0.0580 158.3856 0002676 235.7109 265.4866  1.00275810 27956"
    }
]